LANDSAT 4               
1 13367U 82072A   09159.51326048  .00000842  00000-0  68925-4 0  1318
2 13367  98.1829  73.9952 0018834   4.4110 355.7278 15.02199972443214
TDRS 1                  
1 13969U 83026B   09157.98344184 -.00000303  00000-0  10000-3 0  8754
2 13969  13.3318   9.3515 0022249 233.0528 318.2758  1.00277102 68899
LANDSAT 5               
1 14780U 84021A   09160.02139643  .00000025  00000-0  15727-4 0  7406
2 14780  98.2447 227.6475 0003591 125.0080 235.1456 14.57090874344195
ERBS                    
1 15354U 84108B   09159.52128568  .00000344  00000-0  33176-4 0  1201
2 15354  56.9871 191.0815 0021865  64.4408 295.8891 15.15785107350740
TDRS 3                  
1 19548U 88091B   09158.82946167 -.00000195  00000-0  10000-3 0  2712
2 19548  11.8233  40.0132 0023550 322.0973 277.6901  1.00274219 63049
TDRS 4                  
1 19883U 89021B   09158.92927035 -.00000284  00000-0  10000-3 0  5949
2 19883  10.4861  51.9288 0002061 353.5775 139.2818  1.00263158246626
HST                     
1 20580U 90037B   09157.14058997  .00000282  00000-0  87905-5 0  4046
2 20580  28.4691 174.3963 0003622 167.2659 192.8159 15.00806741848196
TDRS 5                  
1 21639U 91054B   09158.81988894  .00000104  00000-0  10000-3 0  4587
2 21639   9.8379  55.7307 0010388 335.6600 352.4294  1.00277430 65362
UARS                    
1 21701U 91063B   09159.19087843  .00004459  00000-0  63250-4 0  6858
2 21701  56.9732  43.9610 0079662 151.4056 209.1408 15.55229713977827
TOPEX/POSEIDON          
1 22076U 92052A   09158.87776415 -.00000038  00000-0  10000-3 0  3757
2 22076  66.0315  90.0475 0007830 263.7579  96.2544 12.80947523787050
TDRS 6                  
1 22314U 93003B   09156.59806444  .00000090  00000-0  10000-3 0  4828
2 22314   9.1831  58.8250 0007766 348.5143 250.8018  1.00266516 60061
TDRS 7                  
1 23613U 95035B   09156.70352889  .00000062  00000-0  10000-3 0  5291
2 23613  11.0123  48.2659 0023570 221.8331  83.1916  0.99553047 50876
RXTE (XTE)              
1 23757U 95074A   09159.11728656  .00001164  00000-0  25520-4 0  8831
2 23757  22.9813  99.9591 0008377 230.8905 129.0913 15.27250892744387
TRMM                    
1 25063U 97074A   09159.96554476  .00003233  00000-0  45423-4 0   829
2 25063  34.9667  32.8746 0001103 290.4117  69.6454 15.56160600658814
KIKU-7 (ETS-VII)        
1 25064U 97074B   09160.15375960  .00000489  00000-0  20457-4 0  8213
2 25064  34.9580  82.6819 0001731 265.7138  94.3379 15.25164361639788
ISS (ZARYA)             
1 25544U 98067A   09160.12255947  .00017740  00000-0  12823-3 0    24
2 25544  51.6405 348.2892 0009223  92.2562   9.3141 15.73542580604683
LANDSAT 7               
1 25682U 99020A   09160.12594555  .00000091  00000-0  30231-4 0  8289
2 25682  98.2091 228.2617 0000663  98.8278 261.3006 14.57113453539907
FUSE 1                  
1 25791U 99035A   09159.02470783  .00000302  00000-0  36631-4 0  4527
2 25791  24.9872  24.0831 0010803 177.7282 182.3242 14.41795274525077
TERRA                   
1 25994U 99068A   09160.14516846  .00000086  00000-0  29181-4 0  7551
2 25994  98.2026 235.2630 0001617  79.4475 280.6924 14.57123921503981
TDRS 8                  
1 26388U 00034A   09158.76902786 -.00000213  00000-0  10000-3 0  9702
2 26388   1.3800 109.3734 0005350 328.9348 183.8654  1.00266370 32834
EO-1                    
1 26619U 00075A   09160.15857292  .00000941  00000-0  19684-3 0  1268
2 26619  98.1451 227.6569 0009607 339.8354  20.2499 14.62023682455091
TIMED                   
1 26998U 01055B   09159.84694554  .00000108  00000-0  17314-4 0  3122
2 26998  74.0747   6.5141 0000987 128.1396 231.9812 14.84075802406281
TDRS 9                  
1 27389U 02011A   09159.32668899 -.00000270  00000-0  10000-3 0  3974
2 27389   2.3669 232.8226 0009140 170.0610 269.0778  1.00282160 28099
AQUA                    
1 27424U 02022A   09156.87113892 -.00000055  00000-0 -21491-5 0  3218
2 27424  98.1777  99.3808 0001189 106.2373 253.8978 14.57125995377117
TDRS 10                 
1 27566U 02055A   09158.88118365 -.00000257  00000-0  00000+0 0  1100
2 27566   1.1180 281.4953 0003691 164.4710  86.8754  1.00273306 23918
SORCE                   
1 27651U 03004A   09159.57913585  .00000051  00000-0  22024-4 0  9210
2 27651  39.9983   1.0766 0028011 285.0738  74.6965 14.82183235345016
GALEX                   
1 27783U 03017A   09159.80099734  .00000300  00000-0  40287-4 0  6852
2 27783  28.9994 310.0955 0003593   8.5360 351.5324 14.59750136326550
GP-B                    
1 28230U 04014A   09159.96687375  .00000039  00000-0  34062-5 0  5267
2 28230  89.9394 158.0137 0002902  98.1838 261.9733 14.75974425276569
AURA                    
1 28376U 04026A   09159.55471034 -.00000022  00000-0  51236-5 0  5196
2 28376  98.1757 104.1626 0001349  98.9735 261.1611 14.57122851260555
SWIFT                   
1 28485U 04047A   09159.45825729  .00000670  00000-0  25115-4 0  3140
2 28485  20.5586 260.6437 0014362 305.7891  54.1201 14.92546205248366
THEMIS A                
1 30580U 07004A   09158.54166667 -.00000122  00000-0  10000-3 0  4389
2 30580   9.2517 248.7760 7884996 111.7111 359.4019  0.87647924  8118
THEMIS B                
1 30581U 07004B   09158.58333333 -.00001154  00000-0  00000-0 0  2560
2 30581  11.2774   5.1257 9153951 321.7961 356.8746  0.24793694  6035
THEMIS C                
1 30582U 07004C   09158.66666667 -.00000355  00000-0  00000-0 0  4114
2 30582   9.0091 344.1035 8589597 352.9668 358.9481  0.49406023  4908
THEMIS D                
1 30797U 07004D   09159.54166667 -.00000110  00000-0  00000+0 0  5787
2 30797   4.1171 247.5032 7491941 113.0110 344.7777  1.00265534  7661
THEMIS E                
1 30798U 07004E   09159.58333333 -.00000123  00000-0  00000+0 0  5984
2 30798   4.6486 246.9422 7489755 113.5655 345.2077  1.00268974  7807
C/NOFS                  
1 32765U 08017A   09160.23538301  .00003497  00000-0  13180-3 0  3128
2 32765  13.0053 151.4613 0315099 333.1277  25.3002 14.81357125 62132
AIM                     
1 31304U 07015A   09160.24762537  .00000954  00000-0  99289-4 0  7230
2 31304  97.8011 260.9744 0010530 244.8622 115.1522 14.92135504115613
FGRST (GLAST)           
1 33053U 08029A   09159.04146244  .00000278  00000-0  00000+0 0  2609
2 33053  25.5832  48.4452 0014095  35.4971 324.6513 15.04934722 54501
